{
  "type": "FeatureCollection",
  "features": [
    {
      "type": "Feature",
      "properties": {
        "norad_id": 66568,
        "name": "STARLINK-35803",
        "group": "last-30-days",
        "lat": 39.82178988305366,
        "lon": 153.5778362014687,
        "alt_km": 425.2016018196018,
        "timestamp": "2025-12-27T02:10:14.905274+00:00",
        "meta_object_name": "STARLINK-35803",
        "meta_object_id": "2025-268M",
        "meta_epoch": "2025-12-26T20:00:01.999008",
        "meta_mean_motion": 15.46348048,
        "meta_eccentricity": 0.000154,
        "meta_inclination": 43.0005,
        "meta_ra_of_asc_node": 38.551,
        "meta_arg_of_pericenter": 284.6246,
        "meta_mean_anomaly": 192.958,
        "meta_ephemeris_type": 0,
        "meta_classification_type": "U",
        "meta_norad_cat_id": 66568,
        "meta_element_set_no": 999,
        "meta_rev_at_epoch": 600,
        "meta_bstar": -0.039035,
        "meta_mean_motion_dot": -0.01754484,
        "meta_mean_motion_ddot": 0,
        "tle_line1": "1 66568U 25268M   25360.83335647 -.01754484  00000+0 -39035-1 0  9994",
        "tle_line2": "2 66568  43.0005  38.5510 0001540 284.6246 192.9580 15.46348048  6002"
      },
      "geometry": {
        "type": "Point",
        "coordinates": [
          153.5778362014687,
          39.82178988305366
        ]
      }
    },
    {
      "type": "Feature",
      "properties": {
        "norad_id": 66569,
        "name": "STARLINK-35835",
        "group": "last-30-days",
        "lat": 25.781306586069277,
        "lon": -174.23591426303676,
        "alt_km": 428.06387162655665,
        "timestamp": "2025-12-27T02:10:14.905285+00:00",
        "meta_object_name": "STARLINK-35835",
        "meta_object_id": "2025-268N",
        "meta_epoch": "2025-12-26T20:00:01.999008",
        "meta_mean_motion": 15.46188527,
        "meta_eccentricity": 0.0001194,
        "meta_inclination": 43.0007,
        "meta_ra_of_asc_node": 38.4771,
        "meta_arg_of_pericenter": 279.5225,
        "meta_mean_anomaly": 228.5729,
        "meta_ephemeris_type": 0,
        "meta_classification_type": "U",
        "meta_norad_cat_id": 66569,
        "meta_element_set_no": 999,
        "meta_rev_at_epoch": 605,
        "meta_bstar": -0.046813,
        "meta_mean_motion_dot": -0.02089049,
        "meta_mean_motion_ddot": 0,
        "tle_line1": "1 66569U 25268N   25360.83335647 -.02089049  00000+0 -46813-1 0  9996",
        "tle_line2": "2 66569  43.0007  38.4771 0001194 279.5225 228.5729 15.46188527  6058"
      },
      "geometry": {
        "type": "Point",
        "coordinates": [
          -174.23591426303676,
          25.781306586069277
        ]
      }
    },
    {
      "type": "Feature",
      "properties": {
        "norad_id": 66570,
        "name": "STARLINK-35834",
        "group": "last-30-days",
        "lat": -41.85873391079385,
        "lon": -36.519075707323104,
        "alt_km": 477.2834191900256,
        "timestamp": "2025-12-27T02:10:14.905296+00:00",
        "meta_object_name": "STARLINK-35834",
        "meta_object_id": "2025-268P",
        "meta_epoch": "2025-12-26T20:00:01.999008",
        "meta_mean_motion": 15.31472678,
        "meta_eccentricity": 0.0001314,
        "meta_inclination": 43.001,
        "meta_ra_of_asc_node": 38.9759,
        "meta_arg_of_pericenter": 259.7129,
        "meta_mean_anomaly": 43.5478,
        "meta_ephemeris_type": 0,
        "meta_classification_type": "U",
        "meta_norad_cat_id": 66570,
        "meta_element_set_no": 999,
        "meta_rev_at_epoch": 600,
        "meta_bstar": -0.07302,
        "meta_mean_motion_dot": -0.02045225,
        "meta_mean_motion_ddot": 0,
        "tle_line1": "1 66570U 25268P   25360.83335647 -.02045225  00000+0 -73020-1 0  9996",
        "tle_line2": "2 66570  43.0010  38.9759 0001314 259.7129  43.5478 15.31472678  6000"
      },
      "geometry": {
        "type": "Point",
        "coordinates": [
          -36.519075707323104,
          -41.85873391079385
        ]
      }
    },
    {
      "type": "Feature",
      "properties": {
        "norad_id": 66571,
        "name": "STARLINK-35836",
        "group": "last-30-days",
        "lat": -35.79664602115952,
        "lon": -13.228871225970623,
        "alt_km": 474.77375860555276,
        "timestamp": "2025-12-27T02:10:14.905306+00:00",
        "meta_object_name": "STARLINK-35836",
        "meta_object_id": "2025-268Q",
        "meta_epoch": "2025-12-26T20:00:01.999008",
        "meta_mean_motion": 15.32285392,
        "meta_eccentricity": 0.0001002,
        "meta_inclination": 43.0013,
        "meta_ra_of_asc_node": 38.932,
        "meta_arg_of_pericenter": 261.9101,
        "meta_mean_anomaly": 59.6961,
        "meta_ephemeris_type": 0,
        "meta_classification_type": "U",
        "meta_norad_cat_id": 66571,
        "meta_element_set_no": 999,
        "meta_rev_at_epoch": 605,
        "meta_bstar": -0.068681,
        "meta_mean_motion_dot": -0.01980214,
        "meta_mean_motion_ddot": 0,
        "tle_line1": "1 66571U 25268Q   25360.83335647 -.01980214  00000+0 -68681-1 0  9999",
        "tle_line2": "2 66571  43.0013  38.9320 0001002 261.9101  59.6961 15.32285392  6053"
      },
      "geometry": {
        "type": "Point",
        "coordinates": [
          -13.228871225970623,
          -35.79664602115952
        ]
      }
    },
    {
      "type": "Feature",
      "properties": {
        "norad_id": 66572,
        "name": "STARLINK-35870",
        "group": "last-30-days",
        "lat": -19.119858045737477,
        "lon": 15.558994394815446,
        "alt_km": 469.68066034585263,
        "timestamp": "2025-12-27T02:10:14.905317+00:00",
        "meta_object_name": "STARLINK-35870",
        "meta_object_id": "2025-268R",
        "meta_epoch": "2025-12-26T20:00:01.999008",
        "meta_mean_motion": 15.33716965,
        "meta_eccentricity": 0.0001063,
        "meta_inclination": 43.0011,
        "meta_ra_of_asc_node": 38.8633,
        "meta_arg_of_pericenter": 257.0685,
        "meta_mean_anomaly": 93.599,
        "meta_ephemeris_type": 0,
        "meta_classification_type": "U",
        "meta_norad_cat_id": 66572,
        "meta_element_set_no": 999,
        "meta_rev_at_epoch": 600,
        "meta_bstar": -0.064638,
        "meta_mean_motion_dot": -0.01922172,
        "meta_mean_motion_ddot": 0,
        "tle_line1": "1 66572U 25268R   25360.83335647 -.01922172  00000+0 -64638-1 0  9997",
        "tle_line2": "2 66572  43.0011  38.8633 0001063 257.0685  93.5990 15.33716965  6008"
      },
      "geometry": {
        "type": "Point",
        "coordinates": [
          15.558994394815446,
          -19.119858045737477
        ]
      }
    },
    {
      "type": "Feature",
      "properties": {
        "norad_id": 66573,
        "name": "STARLINK-35650",
        "group": "last-30-days",
        "lat": -7.561752456177489,
        "lon": 29.163652228710244,
        "alt_km": 466.208780208437,
        "timestamp": "2025-12-27T02:10:14.905327+00:00",
        "meta_object_name": "STARLINK-35650",
        "meta_object_id": "2025-268S",
        "meta_epoch": "2025-12-26T20:00:01.999008",
        "meta_mean_motion": 15.34602887,
        "meta_eccentricity": 0.0001459,
        "meta_inclination": 43.0009,
        "meta_ra_of_asc_node": 38.8203,
        "meta_arg_of_pericenter": 261.9624,
        "meta_mean_anomaly": 105.5,
        "meta_ephemeris_type": 0,
        "meta_classification_type": "U",
        "meta_norad_cat_id": 66573,
        "meta_element_set_no": 999,
        "meta_rev_at_epoch": 594,
        "meta_bstar": -0.066578,
        "meta_mean_motion_dot": -0.02058725,
        "meta_mean_motion_ddot": 0,
        "tle_line1": "1 66573U 25268S   25360.83335647 -.02058725  00000+0 -66578-1 0  9998",
        "tle_line2": "2 66573  43.0009  38.8203 0001459 261.9624 105.5000 15.34602887  5941"
      },
      "geometry": {
        "type": "Point",
        "coordinates": [
          29.163652228710244,
          -7.561752456177489
        ]
      }
    },
    {
      "type": "Feature",
      "properties": {
        "norad_id": 66574,
        "name": "STARLINK-35812",
        "group": "last-30-days",
        "lat": 4.015017105802443,
        "lon": 41.63117604632319,
        "alt_km": 462.5453103156433,
        "timestamp": "2025-12-27T02:10:14.905338+00:00",
        "meta_object_name": "STARLINK-35812",
        "meta_object_id": "2025-268T",
        "meta_epoch": "2025-12-26T20:00:01.999008",
        "meta_mean_motion": 15.35439378,
        "meta_eccentricity": 0.0001472,
        "meta_inclination": 43.0009,
        "meta_ra_of_asc_node": 38.7803,
        "meta_arg_of_pericenter": 263.4755,
        "meta_mean_anomaly": 120.2333,
        "meta_ephemeris_type": 0,
        "meta_classification_type": "U",
        "meta_norad_cat_id": 66574,
        "meta_element_set_no": 999,
        "meta_rev_at_epoch": 605,
        "meta_bstar": -0.064707,
        "meta_mean_motion_dot": -0.02055865,
        "meta_mean_motion_ddot": 0,
        "tle_line1": "1 66574U 25268T   25360.83335647 -.02055865  00000+0 -64707-1 0  9993",
        "tle_line2": "2 66574  43.0009  38.7803 0001472 263.4755 120.2333 15.35439378  6054"
      },
      "geometry": {
        "type": "Point",
        "coordinates": [
          41.63117604632319,
          4.015017105802443
        ]
      }
    }
  ]
}